start=new Date('2021-09-10T00:00:00.000Z').valueOf();
sats=[{"OBJECT_TYPE":"PAYLOAD","MEAN_MOTION_DOT":"-0.00022682","MEAN_ELEMENT_THEORY":"SGP4","ARG_OF_PERICENTER":"76.2670","ELEMENT_SET_NO":"999","PERIAPSIS":"545.646","SEMIMAJOR_AXIS":"6925.317","PERIOD":"95.591","TLE_LINE2":"2 48022  53.0541 141.8272 0002218  76.2670  86.6653 15.06410134  3600","MEAN_MOTION_DDOT":"0.0000000000000","LAUNCH_DATE":"2021-03-24","REF_FRAME":"TEME","BSTAR":"-0.00150820000000","OBJECT_NAME":"STARLINK-2298","CENTER_NAME":"EARTH","TLE_LINE1":"1 48022U 21024AX  21252.91667824 -.00022682  00000-0 -15082-2 0  9990","NORAD_CAT_ID":"48022","SITE":"AFETR","DECAY_DATE":null,"EPHEMERIS_TYPE":"0","CLASSIFICATION_TYPE":"U","REV_AT_EPOCH":"360","RCS_SIZE":"LARGE","COUNTRY_CODE":"US","EPOCH":"2021-09-09T22:00:00.999936","INCLINATION":"53.0541","RA_OF_ASC_NODE":"141.8272","MEAN_MOTION":"15.06410134","TIME_SYSTEM":"UTC","OBJECT_ID":"2021-024AX","FILE":"3111873","GP_ID":"184408519","APOAPSIS":"548.719","MEAN_ANOMALY":"86.6653","ECCENTRICITY":"0.00022180"},{"MEAN_MOTION_DDOT":"0.0000000000000","LAUNCH_DATE":"2021-03-24","REF_FRAME":"TEME","BSTAR":"-0.00172240000000","OBJECT_NAME":"STARLINK-2292","CENTER_NAME":"EARTH","TLE_LINE1":"1 48023U 21024AY  21252.91667824 -.00025861  00000-0 -17224-2 0  9993","OBJECT_TYPE":"PAYLOAD","MEAN_MOTION_DOT":"-0.00025861","MEAN_ELEMENT_THEORY":"SGP4","ARG_OF_PERICENTER":"72.5456","ELEMENT_SET_NO":"999","PERIAPSIS":"545.783","SEMIMAJOR_AXIS":"6925.276","PERIOD":"95.591","TLE_LINE2":"2 48023  53.0533 141.8138 0001960  72.5456   5.2824 15.06423748  3610","MEAN_MOTION":"15.06423748","RA_OF_ASC_NODE":"141.8138","OBJECT_ID":"2021-024AY","TIME_SYSTEM":"UTC","FILE":"3111873","GP_ID":"184408769","APOAPSIS":"548.498","MEAN_ANOMALY":"5.2824","ECCENTRICITY":"0.00019600","NORAD_CAT_ID":"48023","SITE":"AFETR","DECAY_DATE":null,"EPHEMERIS_TYPE":"0","REV_AT_EPOCH":"361","CLASSIFICATION_TYPE":"U","RCS_SIZE":"LARGE","COUNTRY_CODE":"US","EPOCH":"2021-09-09T22:00:00.999936","INCLINATION":"53.0533"},{"BSTAR":"0.00047661000000","REF_FRAME":"TEME","TLE_LINE1":"1 48024U 21024AZ  21252.91667824  .00066795  00000-0  47661-3 0  9992","OBJECT_NAME":"STARLINK-2302","CENTER_NAME":"EARTH","MEAN_MOTION_DDOT":"0.0000000000000","LAUNCH_DATE":"2021-03-24","PERIAPSIS":"346.811","TLE_LINE2":"2 48024  53.0448  81.7827 0004454   8.7613   1.2294 15.73183513 27485","PERIOD":"91.534","SEMIMAJOR_AXIS":"6727.942","ARG_OF_PERICENTER":"8.7613","MEAN_MOTION_DOT":"0.00066795","MEAN_ELEMENT_THEORY":"SGP4","OBJECT_TYPE":"PAYLOAD","ELEMENT_SET_NO":"999","GP_ID":"184385832","FILE":"3111808","ECCENTRICITY":"0.00044540","MEAN_ANOMALY":"1.2294","APOAPSIS":"352.804","MEAN_MOTION":"15.73183513","RA_OF_ASC_NODE":"81.7827","OBJECT_ID":"2021-024AZ","TIME_SYSTEM":"UTC","EPOCH":"2021-09-09T22:00:00.999936","COUNTRY_CODE":"US","RCS_SIZE":"LARGE","INCLINATION":"53.0448","SITE":"AFETR","NORAD_CAT_ID":"48024","REV_AT_EPOCH":"2748","CLASSIFICATION_TYPE":"U","EPHEMERIS_TYPE":"0","DECAY_DATE":null},{"GP_ID":"184386163","FILE":"3111808","ECCENTRICITY":"0.00042770","MEAN_ANOMALY":"5.9861","APOAPSIS":"352.617","MEAN_MOTION":"15.73207118","RA_OF_ASC_NODE":"81.7772","TIME_SYSTEM":"UTC","OBJECT_ID":"2021-024BA","COUNTRY_CODE":"US","EPOCH":"2021-09-09T22:00:00.999936","RCS_SIZE":"LARGE","INCLINATION":"53.0446","SITE":"AFETR","NORAD_CAT_ID":"48025","CLASSIFICATION_TYPE":"U","REV_AT_EPOCH":"2748","DECAY_DATE":null,"EPHEMERIS_TYPE":"0","BSTAR":"-0.00028384000000","REF_FRAME":"TEME","TLE_LINE1":"1 48025U 21024BA  21252.91667824 -.00040312  00000-0 -28384-3 0  9993","CENTER_NAME":"EARTH","OBJECT_NAME":"STARLINK-2318","MEAN_MOTION_DDOT":"0.0000000000000","LAUNCH_DATE":"2021-03-24","PERIAPSIS":"346.862","TLE_LINE2":"2 48025  53.0446  81.7772 0004277   4.6519   5.9861 15.73207118 27485","SEMIMAJOR_AXIS":"6727.875","PERIOD":"91.533","ARG_OF_PERICENTER":"4.6519","OBJECT_TYPE":"PAYLOAD","MEAN_ELEMENT_THEORY":"SGP4","MEAN_MOTION_DOT":"-0.00040312","ELEMENT_SET_NO":"999"},{"APOAPSIS":"553.537","MEAN_ANOMALY":"209.0344","ECCENTRICITY":"0.00020410","FILE":"3111873","GP_ID":"184408020","OBJECT_ID":"2021-024BB","TIME_SYSTEM":"UTC","RA_OF_ASC_NODE":"146.9219","MEAN_MOTION":"15.04799613","INCLINATION":"53.0506","RCS_SIZE":"LARGE","COUNTRY_CODE":"US","EPOCH":"2021-09-09T22:00:00.999936","DECAY_DATE":null,"EPHEMERIS_TYPE":"0","REV_AT_EPOCH":"359","CLASSIFICATION_TYPE":"U","NORAD_CAT_ID":"48026","SITE":"AFETR","CENTER_NAME":"EARTH","OBJECT_NAME":"STARLINK-2278","TLE_LINE1":"1 48026U 21024BB  21252.91667824  .00028369  00000-0  19997-2 0  9999","REF_FRAME":"TEME","BSTAR":"0.00199970000000","LAUNCH_DATE":"2021-03-24","MEAN_MOTION_DDOT":"0.0000000000000","SEMIMAJOR_AXIS":"6930.258","PERIOD":"95.694","TLE_LINE2":"2 48026  53.0506 146.9219 0002041  69.6521 209.0344 15.04799613  3593","PERIAPSIS":"550.708","ELEMENT_SET_NO":"999","OBJECT_TYPE":"PAYLOAD","MEAN_MOTION_DOT":"0.00028369","MEAN_ELEMENT_THEORY":"SGP4","ARG_OF_PERICENTER":"69.6521"},{"MEAN_MOTION_DOT":"-0.00039619","MEAN_ELEMENT_THEORY":"SGP4","OBJECT_TYPE":"PAYLOAD","ARG_OF_PERICENTER":"68.2615","ELEMENT_SET_NO":"999","PERIAPSIS":"545.837","PERIOD":"95.592","SEMIMAJOR_AXIS":"6925.326","TLE_LINE2":"2 48027  53.0530 121.8176 0001955  68.2615 339.6279 15.06407304  3599","MEAN_MOTION_DDOT":"0.0000000000000","LAUNCH_DATE":"2021-03-24","REF_FRAME":"TEME","BSTAR":"-0.00265510000000","OBJECT_NAME":"STARLINK-2300","CENTER_NAME":"EARTH","TLE_LINE1":"1 48027U 21024BC  21252.91667824 -.00039619  00000-0 -26551-2 0  9996","NORAD_CAT_ID":"48027","SITE":"AFETR","EPHEMERIS_TYPE":"0","DECAY_DATE":null,"CLASSIFICATION_TYPE":"U","REV_AT_EPOCH":"359","RCS_SIZE":"LARGE","EPOCH":"2021-09-09T22:00:00.999936","COUNTRY_CODE":"US","INCLINATION":"53.0530","MEAN_MOTION":"15.06407304","RA_OF_ASC_NODE":"121.8176","OBJECT_ID":"2021-024BC","TIME_SYSTEM":"UTC","FILE":"3111873","GP_ID":"184408270","APOAPSIS":"548.545","MEAN_ANOMALY":"339.6279","ECCENTRICITY":"0.00019550"},{"SEMIMAJOR_AXIS":"6763.781","PERIOD":"92.267","TLE_LINE2":"2 48028  53.0425  82.0121 0001372  64.0745 171.5532 15.60696335  3704","PERIAPSIS":"384.718","ELEMENT_SET_NO":"999","MEAN_ELEMENT_THEORY":"SGP4","MEAN_MOTION_DOT":"-0.00953418","OBJECT_TYPE":"PAYLOAD","ARG_OF_PERICENTER":"64.0745","CENTER_NAME":"EARTH","OBJECT_NAME":"STARLINK-2264","TLE_LINE1":"1 48028U 21024BD  21252.91667824 -.00953418  00000-0 -12452-1 0  9993","REF_FRAME":"TEME","BSTAR":"-0.01245200000000","LAUNCH_DATE":"2021-03-24","MEAN_MOTION_DDOT":"0.0000000000000","INCLINATION":"53.0425","RCS_SIZE":"LARGE","EPOCH":"2021-09-09T22:00:00.999936","COUNTRY_CODE":"US","EPHEMERIS_TYPE":"0","DECAY_DATE":null,"CLASSIFICATION_TYPE":"U","REV_AT_EPOCH":"370","NORAD_CAT_ID":"48028","SITE":"AFETR","APOAPSIS":"386.574","MEAN_ANOMALY":"171.5532","ECCENTRICITY":"0.00013720","FILE":"3111873","GP_ID":"184409022","OBJECT_ID":"2021-024BD","TIME_SYSTEM":"UTC","RA_OF_ASC_NODE":"82.0121","MEAN_MOTION":"15.60696335"},{"OBJECT_TYPE":"PAYLOAD","MEAN_MOTION_DOT":"-0.00021326","MEAN_ELEMENT_THEORY":"SGP4","ARG_OF_PERICENTER":"70.1655","ELEMENT_SET_NO":"999","PERIAPSIS":"545.720","SEMIMAJOR_AXIS":"6925.355","PERIOD":"95.592","TLE_LINE2":"2 48029  53.0541 141.8249 0002166  70.1655 127.7328 15.06397996  3605","MEAN_MOTION_DDOT":"0.0000000000000","LAUNCH_DATE":"2021-03-24","REF_FRAME":"TEME","BSTAR":"-0.00141710000000","OBJECT_NAME":"STARLINK-2299","CENTER_NAME":"EARTH","TLE_LINE1":"1 48029U 21024BE  21252.91667824 -.00021326  00000-0 -14171-2 0  9999","NORAD_CAT_ID":"48029","SITE":"AFETR","DECAY_DATE":null,"EPHEMERIS_TYPE":"0","CLASSIFICATION_TYPE":"U","REV_AT_EPOCH":"360","RCS_SIZE":"LARGE","COUNTRY_CODE":"US","EPOCH":"2021-09-09T22:00:00.999936","INCLINATION":"53.0541","RA_OF_ASC_NODE":"141.8249","MEAN_MOTION":"15.06397996","TIME_SYSTEM":"UTC","OBJECT_ID":"2021-024BE","FILE":"3111873","GP_ID":"184409262","MEAN_ANOMALY":"127.7328","APOAPSIS":"548.720","ECCENTRICITY":"0.00021660"},{"MEAN_MOTION_DDOT":"0.0000000000000","LAUNCH_DATE":"2021-03-24","BSTAR":"0.00503830000000","REF_FRAME":"TEME","TLE_LINE1":"1 48030U 21024BF  21252.91667824  .00075457  00000-0  50383-2 0  9998","OBJECT_NAME":"STARLINK-2268","CENTER_NAME":"EARTH","ARG_OF_PERICENTER":"77.1527","MEAN_MOTION_DOT":"0.00075457","MEAN_ELEMENT_THEORY":"SGP4","OBJECT_TYPE":"PAYLOAD","ELEMENT_SET_NO":"999","PERIAPSIS":"546.344","TLE_LINE2":"2 48030  53.0534 146.8147 0001502  77.1527 333.1968 15.06344330 26588","PERIOD":"95.596","SEMIMAJOR_AXIS":"6925.519","RA_OF_ASC_NODE":"146.8147","MEAN_MOTION":"15.06344330","TIME_SYSTEM":"UTC","OBJECT_ID":"2021-024BF","GP_ID":"184385834","FILE":"3111808","ECCENTRICITY":"0.00015020","MEAN_ANOMALY":"333.1968","APOAPSIS":"548.424","SITE":"AFETR","NORAD_CAT_ID":"48030","CLASSIFICATION_TYPE":"U","REV_AT_EPOCH":"2658","EPHEMERIS_TYPE":"0","DECAY_DATE":null,"EPOCH":"2021-09-09T22:00:00.999936","COUNTRY_CODE":"US","RCS_SIZE":"LARGE","INCLINATION":"53.0534"},{"MEAN_MOTION":"15.73201783","RA_OF_ASC_NODE":"81.7702","OBJECT_ID":"2021-024BG","TIME_SYSTEM":"UTC","FILE":"3111873","GP_ID":"184408770","MEAN_ANOMALY":"10.6120","APOAPSIS":"352.634","ECCENTRICITY":"0.00042790","NORAD_CAT_ID":"48031","SITE":"AFETR","EPHEMERIS_TYPE":"0","DECAY_DATE":null,"CLASSIFICATION_TYPE":"U","REV_AT_EPOCH":"370","RCS_SIZE":"LARGE","EPOCH":"2021-09-09T22:00:00.999936","COUNTRY_CODE":"US","INCLINATION":"53.0446","MEAN_MOTION_DDOT":"0.0000000000000","LAUNCH_DATE":"2021-03-24","REF_FRAME":"TEME","BSTAR":"0.00040521000000","CENTER_NAME":"EARTH","OBJECT_NAME":"STARLINK-2267","TLE_LINE1":"1 48031U 21024BG  21252.91667824  .00056669  00000-0  40521-3 0  9997","MEAN_MOTION_DOT":"0.00056669","MEAN_ELEMENT_THEORY":"SGP4","OBJECT_TYPE":"PAYLOAD","ARG_OF_PERICENTER":"3.8117","ELEMENT_SET_NO":"999","PERIAPSIS":"346.876","SEMIMAJOR_AXIS":"6727.890","PERIOD":"91.533","TLE_LINE2":"2 48031  53.0446  81.7702 0004279   3.8117  10.6120 15.73201783  3704"}];
